{"type": "FeatureCollection", "features": [ {"type": "Feature", "properties": {"norad_id": 31255, "name": "FENGYUN 1C DEB", "group": "fengyun-1c-debris", "lat": -56.829263328908574, "lon": -21.905934847721316, "alt_km": 834.3637456518018, "timestamp": "2025-12-21T05:44:51.867149+00:00", "meta": {"OBJECT_NAME": "FENGYUN 1C DEB", "OBJECT_ID": "1999-025BMM", "EPOCH": "2025-12-20T18:22:42.937536", "MEAN_MOTION": 14.09739215, "ECCENTRICITY": 0.02703986, "INCLINATION": 99.3083, "RA_OF_ASC_NODE": 172.1352, "ARG_OF_PERICENTER": 321.1209, "MEAN_ANOMALY": 37.0781, "EPHEMERIS_TYPE": 0, "CLASSIFICATION_TYPE": "U", "NORAD_CAT_ID": 31255, "ELEMENT_SET_NO": 999, "REV_AT_EPOCH": 96914, "BSTAR": 0.00022332639, "MEAN_MOTION_DOT": 4.97e-06, "MEAN_MOTION_DDOT": 0}, "tle": {"line1": "1 31255U 99025BMM 25354.76577474  .00000497  00000+0  22333-3 0  9992", "line2": "2 31255  99.3083 172.1352 0270398 321.1209  37.0781 14.09739215969144"}}, "geometry": {"type": "Point", "coordinates": [-21.905934847721316, -56.829263328908574]}}, {"type": "Feature", "properties": {"norad_id": 31256, "name": "FENGYUN 1C DEB", "group": "fengyun-1c-debris", "lat": -80.60352630669347, "lon": -90.09427213773384, "alt_km": 1113.1113373507433, "timestamp": "2025-12-21T05:44:51.867159+00:00", "meta": {"OBJECT_NAME": "FENGYUN 1C DEB", "OBJECT_ID": "1999-025BMN", "EPOCH": "2025-12-20T13:03:48.142944", "MEAN_MOTION": 14.03360482, "ECCENTRICITY": 0.030857, "INCLINATION": 98.6798, "RA_OF_ASC_NODE": 201.8605, "ARG_OF_PERICENTER": 92.0053, "MEAN_ANOMALY": 271.6477, "EPHEMERIS_TYPE": 0, "CLASSIFICATION_TYPE": "U", "NORAD_CAT_ID": 31256, "ELEMENT_SET_NO": 999, "REV_AT_EPOCH": 65091, "BSTAR": 0.0013763, "MEAN_MOTION_DOT": 3.241e-05, "MEAN_MOTION_DDOT": 0}, "tle": {"line1": "1 31256U 99025BMN 25354.54430721  .00003241  00000+0  13763-2 0  9998", "line2": "2 31256  98.6798 201.8605 0308570  92.0053 271.6477 14.03360482650916"}}, "geometry": {"type": "Point", "coordinates": [-90.09427213773384, -80.60352630669347]}}, {"type": "Feature", "properties": {"norad_id": 31258, "name": "FENGYUN 1C DEB", "group": "fengyun-1c-debris", "lat": 7.517664233677357, "lon": -33.329218536993054, "alt_km": 526.0883802403987, "timestamp": "2025-12-21T05:44:51.867179+00:00", "meta": {"OBJECT_NAME": "FENGYUN 1C DEB", "OBJECT_ID": "1999-025BMQ", "EPOCH": "2025-12-20T21:43:49.544256", "MEAN_MOTION": 15.15122008, "ECCENTRICITY": 0.00070261, "INCLINATION": 98.8478, "RA_OF_ASC_NODE": 145.1045, "ARG_OF_PERICENTER": 313.3708, "MEAN_ANOMALY": 197.9387, "EPHEMERIS_TYPE": 0, "CLASSIFICATION_TYPE": "U", "NORAD_CAT_ID": 31258, "ELEMENT_SET_NO": 999, "REV_AT_EPOCH": 97234, "BSTAR": 0.0063108531, "MEAN_MOTION_DOT": 0.00120127, "MEAN_MOTION_DDOT": 0}, "tle": {"line1": "1 31258U 99025BMQ 25354.90543454  .00120127  00000+0  63109-2 0  9990", "line2": "2 31258  98.8478 145.1045 0007026 313.3708 197.9387 15.15122008972349"}}, "geometry": {"type": "Point", "coordinates": [-33.329218536993054, 7.517664233677357]}}, {"type": "Feature", "properties": {"norad_id": 31259, "name": "FENGYUN 1C DEB", "group": "fengyun-1c-debris", "lat": -65.34998293824043, "lon": 94.74533273185726, "alt_km": 873.2233444757485, "timestamp": "2025-12-21T05:44:51.867190+00:00", "meta": {"OBJECT_NAME": "FENGYUN 1C DEB", "OBJECT_ID": "1999-025BMR", "EPOCH": "2025-12-19T22:07:09.613056", "MEAN_MOTION": 14.15066599, "ECCENTRICITY": 0.0065912, "INCLINATION": 99.0095, "RA_OF_ASC_NODE": 73.1883, "ARG_OF_PERICENTER": 176.2527, "MEAN_ANOMALY": 246.4586, "EPHEMERIS_TYPE": 0, "CLASSIFICATION_TYPE": "U", "NORAD_CAT_ID": 31259, "ELEMENT_SET_NO": 999, "REV_AT_EPOCH": 95671, "BSTAR": 0.0010314, "MEAN_MOTION_DOT": 1.996e-05, "MEAN_MOTION_DDOT": 0}, "tle": {"line1": "1 31259U 99025BMR 25353.92163904  .00001996  00000+0  10314-2 0  9992", "line2": "2 31259  99.0095  73.1883 0065912 176.2527 246.4586 14.15066599956716"}}, "geometry": {"type": "Point", "coordinates": [94.74533273185726, -65.34998293824043]}}, {"type": "Feature", "properties": {"norad_id": 31260, "name": "FENGYUN 1C DEB", "group": "fengyun-1c-debris", "lat": -48.757359080875894, "lon": -97.11978980129658, "alt_km": 752.5633450693167, "timestamp": "2025-12-21T05:44:51.867200+00:00", "meta": {"OBJECT_NAME": "FENGYUN 1C DEB", "OBJECT_ID": "1999-025BMS", "EPOCH": "2025-12-19T04:32:41.765856", "MEAN_MOTION": 14.36461304, "ECCENTRICITY": 0.00466618, "INCLINATION": 98.9573, "RA_OF_ASC_NODE": 250.3857, "ARG_OF_PERICENTER": 273.4525, "MEAN_ANOMALY": 240.9944, "EPHEMERIS_TYPE": 0, "CLASSIFICATION_TYPE": "U", "NORAD_CAT_ID": 31260, "ELEMENT_SET_NO": 999, "REV_AT_EPOCH": 97286, "BSTAR": 0.00072733999, "MEAN_MOTION_DOT": 2.112e-05, "MEAN_MOTION_DDOT": 0}, "tle": {"line1": "1 31260U 99025BMS 25353.18937229  .00002112  00000+0  72734-3 0  9997", "line2": "2 31260  98.9573 250.3857 0046661 273.4525 240.9944 14.36461304972862"}}, "geometry": {"type": "Point", "coordinates": [-97.11978980129658, -48.757359080875894]}}, {"type": "Feature", "properties": {"norad_id": 31261, "name": "FENGYUN 1C DEB", "group": "fengyun-1c-debris", "lat": 74.31225450861028, "lon": -85.3314826808346, "alt_km": 773.8134577458213, "timestamp": "2025-12-21T05:44:51.867210+00:00", "meta": {"OBJECT_NAME": "FENGYUN 1C DEB", "OBJECT_ID": "1999-025BMT", "EPOCH": "2025-12-20T14:22:49.639296", "MEAN_MOTION": 14.40124851, "ECCENTRICITY": 0.0049969, "INCLINATION": 99.0164, "RA_OF_ASC_NODE": 308.4209, "ARG_OF_PERICENTER": 209.1091, "MEAN_ANOMALY": 150.7308, "EPHEMERIS_TYPE": 0, "CLASSIFICATION_TYPE": "U", "NORAD_CAT_ID": 31261, "ELEMENT_SET_NO": 999, "REV_AT_EPOCH": 97463, "BSTAR": 0.00055092, "MEAN_MOTION_DOT": 1.717e-05, "MEAN_MOTION_DDOT": 0}, "tle": {"line1": "1 31261U 99025BMT 25354.59918564  .00001717  00000+0  55092-3 0  9993", "line2": "2 31261  99.0164 308.4209 0049969 209.1091 150.7308 14.40124851974632"}}, "geometry": {"type": "Point", "coordinates": [-85.3314826808346, 74.31225450861028]}}, {"type": "Feature", "properties": {"norad_id": 31262, "name": "FENGYUN 1C DEB", "group": "fengyun-1c-debris", "lat": 31.847542955615054, "lon": -95.53333966110624, "alt_km": 818.0029332889635, "timestamp": "2025-12-21T05:44:51.867220+00:00", "meta": {"OBJECT_NAME": "FENGYUN 1C DEB", "OBJECT_ID": "1999-025BMU", "EPOCH": "2025-12-16T18:59:36.733632", "MEAN_MOTION": 14.18213534, "ECCENTRICITY": 0.00549404, "INCLINATION": 99.0021, "RA_OF_ASC_NODE": 74.3056, "ARG_OF_PERICENTER": 86.7351, "MEAN_ANOMALY": 42.7165, "EPHEMERIS_TYPE": 0, "CLASSIFICATION_TYPE": "U", "NORAD_CAT_ID": 31262, "ELEMENT_SET_NO": 999, "REV_AT_EPOCH": 95766, "BSTAR": 0.0012380836, "MEAN_MOTION_DOT": 2.539e-05, "MEAN_MOTION_DDOT": 0}, "tle": {"line1": "1 31262U 99025BMU 25350.79139738  .00002539  00000+0  12381-2 0  9996", "line2": "2 31262  99.0021  74.3056 0054940  86.7351  42.7165 14.18213534957664"}}, "geometry": {"type": "Point", "coordinates": [-95.53333966110624, 31.847542955615054]}}, {"type": "Feature", "properties": {"norad_id": 31263, "name": "FENGYUN 1C DEB", "group": "fengyun-1c-debris", "lat": 38.56932371987753, "lon": -85.4762304230679, "alt_km": 299.6668312746842, "timestamp": "2025-12-21T05:44:51.867230+00:00", "meta": {"OBJECT_NAME": "FENGYUN 1C DEB", "OBJECT_ID": "1999-025BMV", "EPOCH": "2025-12-17T17:49:28.390944", "MEAN_MOTION": 15.68261869, "ECCENTRICITY": 0.00247871, "INCLINATION": 98.9827, "RA_OF_ASC_NODE": 277.2526, "ARG_OF_PERICENTER": 119.3199, "MEAN_ANOMALY": 241.0538, "EPHEMERIS_TYPE": 0, "CLASSIFICATION_TYPE": "U", "NORAD_CAT_ID": 31263, "ELEMENT_SET_NO": 999, "REV_AT_EPOCH": 97244, "BSTAR": 0.017261788, "MEAN_MOTION_DOT": 0.02239772, "MEAN_MOTION_DDOT": 0}, "tle": {"line1": "1 31263U 99025BMV 25351.74268971  .02239772  00000+0  17262-1 0  9990", "line2": "2 31263  98.9827 277.2526 0024787 119.3199 241.0538 15.68261869972443"}}, "geometry": {"type": "Point", "coordinates": [-85.4762304230679, 38.56932371987753]}}, {"type": "Feature", "properties": {"norad_id": 31264, "name": "FENGYUN 1C DEB", "group": "fengyun-1c-debris", "lat": 47.430458766348806, "lon": 82.52073586203184, "alt_km": 826.1474567801542, "timestamp": "2025-12-21T05:44:51.867241+00:00", "meta": {"OBJECT_NAME": "FENGYUN 1C DEB", "OBJECT_ID": "1999-025BMW", "EPOCH": "2025-12-20T22:38:07.154304", "MEAN_MOTION": 14.18607707, "ECCENTRICITY": 8.691e-05, "INCLINATION": 99.1147, "RA_OF_ASC_NODE": 252.151, "ARG_OF_PERICENTER": 8.7685, "MEAN_ANOMALY": 50.2965, "EPHEMERIS_TYPE": 0, "CLASSIFICATION_TYPE": "U", "NORAD_CAT_ID": 31264, "ELEMENT_SET_NO": 999, "REV_AT_EPOCH": 96545, "BSTAR": 0.00041497633, "MEAN_MOTION_DOT": 8.13e-06, "MEAN_MOTION_DDOT": 0}, "tle": {"line1": "1 31264U 99025BMW 25354.94313836  .00000813  00000+0  41498-3 0  9997", "line2": "2 31264  99.1147 252.1510 0000869   8.7685  50.2965 14.18607707965459"}}, "geometry": {"type": "Point", "coordinates": [82.52073586203184, 47.430458766348806]}}, {"type": "Feature", "properties": {"norad_id": 31266, "name": "FENGYUN 1C DEB", "group": "fengyun-1c-debris", "lat": -77.4292133255779, "lon": 25.709398585720887, "alt_km": 736.2986009791157, "timestamp": "2025-12-21T05:44:51.867251+00:00", "meta": {"OBJECT_NAME": "FENGYUN 1C DEB", "OBJECT_ID": "1999-025BMY", "EPOCH": "2025-12-19T22:11:19.072320", "MEAN_MOTION": 14.22346034, "ECCENTRICITY": 0.0129486, "INCLINATION": 99.2584, "RA_OF_ASC_NODE": 337.3177, "ARG_OF_PERICENTER": 263.6482, "MEAN_ANOMALY": 124.9762, "EPHEMERIS_TYPE": 0, "CLASSIFICATION_TYPE": "U", "NORAD_CAT_ID": 31266, "ELEMENT_SET_NO": 999, "REV_AT_EPOCH": 97308, "BSTAR": 0.00022646, "MEAN_MOTION_DOT": 4.99e-06, "MEAN_MOTION_DDOT": 0}, "tle": {"line1": "1 31266U 99025BMY 25353.92452630  .00000499  00000+0  22646-3 0  9996", "line2": "2 31266  99.2584 337.3177 0129486 263.6482 124.9762 14.22346034973086"}}, "geometry": {"type": "Point", "coordinates": [25.709398585720887, -77.4292133255779]}}]}